NORAD_CAT_ID,OBJECT_NAME,OBJECT_TYPE,EPOCH,MEAN_MOTION,ECCENTRICITY,INCLINATION,RA_OF_ASC_NODE,ARG_OF_PERICENTER,MEAN_ANOMALY,BSTAR,MEAN_MOTION_DOT,MEAN_MOTION_DDOT,TLE_LINE0,TLE_LINE1,TLE_LINE2,SEMIMAJOR_AXIS,PERIOD,APOGEE,PERIGEE,DECAYED
51106.0,STARLINK-3176,PAYLOAD,2024-03-08 03:16:19,15.08848313,0.0001397,53.2183,333.1896,94.2786,265.8366,7.6287e-05,9.27e-06,0.0,0 STARLINK-3176,1 51106U 22005C   24068.13633339  .00000927  00000-0  76287-4 0  9995,2 51106  53.2183 333.1896 0001397  94.2786 265.8366 15.08848313119543,6917.855,95.437,540.686,538.754,0.0
51106.0,STARLINK-3176,PAYLOAD,2024-03-09 03:07:06,15.08839229,0.0001566,53.2195,328.7274,95.0172,265.0999,9.3395e-05,1.199e-05,0.0,0 STARLINK-3176,1 51106U 22005C   24069.12993807  .00001199  00000-0  93395-4 0  9995,2 51106  53.2195 328.7274 0001566  95.0172 265.0999 15.08839229119698,6917.883,95.438,540.831,538.664,0.0
51106.0,STARLINK-3176,PAYLOAD,2024-03-10 09:19:25,15.08848269,0.000156,53.2181,323.081,106.1512,253.9652,2.1837e-05,6e-07,0.0,0 STARLINK-3176,1 51106U 22005C   24070.38849057  .00000060  00000-0  21837-4 0  9990,2 51106  53.2181 323.0810 0001560 106.1512 253.9652 15.08848269119880,6917.855,95.437,540.799,538.641,0.0
51106.0,STARLINK-3176,PAYLOAD,2024-03-10 20:27:08,15.08833206,0.0001498,53.2187,321.001,88.2298,271.8866,-0.00014082,-2.528e-05,0.0,0 STARLINK-3176,1 51106U 22005C   24070.85218748 -.00002528  00000-0 -14082-3 0  9995,2 51106  53.2187 321.0010 0001498  88.2298 271.8866 15.08833206119956,6917.901,95.438,540.802,538.73,0.0
51106.0,STARLINK-3176,PAYLOAD,2024-03-10 22:02:32,15.08833917,0.0001533,53.2185,320.7038,89.1762,270.9406,-0.00013458,-2.429e-05,0.0,0 STARLINK-3176,1 51106U 22005C   24070.91842681 -.00002429  00000-0 -13458-3 0  9997,2 51106  53.2185 320.7038 0001533  89.1762 270.9406 15.08833917118853,6917.899,95.438,540.824,538.703,0.0
51106.0,STARLINK-3176,PAYLOAD,2024-03-11 09:10:13,15.08841083,0.0001486,53.219,318.6199,83.0425,277.0736,-1.6947e-05,-5.58e-06,0.0,0 STARLINK-3176,1 51106U 22005C   24071.38209974 -.00000558  00000-0 -16947-4 0  9999,2 51106  53.2190 318.6199 0001486  83.0425 277.0736 15.08841083120039,6917.877,95.437,540.77,538.714,0.0
51106.0,STARLINK-3176,PAYLOAD,2024-03-11 17:07:09,15.08839652,0.0001393,53.2199,317.1355,92.487,267.6281,-7.904e-05,-1.546e-05,0.0,0 STARLINK-3176,1 51106U 22005C   24071.71330543 -.00001546  00000-0 -79040-4 0  9994,2 51106  53.2199 317.1355 0001393  92.4870 267.6281 15.08839652120085,6917.881,95.438,540.71,538.783,0.0
51106.0,STARLINK-3176,PAYLOAD,2024-03-12 09:01:00,15.08846375,0.0001304,53.2187,314.1611,87.9183,272.1958,-6.1987e-05,-1.274e-05,0.0,0 STARLINK-3176,1 51106U 22005C   24072.37569986 -.00001274  00000-0 -61987-4 0  9991,2 51106  53.2187 314.1611 0001304  87.9183 272.1958 15.08846375120185,6917.861,95.437,540.628,538.824,0.0
51106.0,STARLINK-3176,PAYLOAD,2024-03-13 00:54:52,15.08832713,0.0001624,53.2172,311.1841,84.3973,275.7205,0.00010457,1.376e-05,0.0,0 STARLINK-3176,1 51106U 22005C   24073.03810670  .00001376  00000-0  10457-3 0  9990,2 51106  53.2172 311.1841 0001624  84.3973 275.7205 15.08832713120280,6917.903,95.438,540.891,538.644,0.0
51106.0,STARLINK-3176,PAYLOAD,2024-03-13 08:51:47,15.08846249,0.0001688,53.2174,309.6968,78.7786,281.3396,0.00010909,1.449e-05,0.0,0 STARLINK-3176,1 51106U 22005C   24073.36929822  .00001449  00000-0  10909-3 0  9999,2 51106  53.2174 309.6968 0001688  78.7786 281.3396 15.08846249120332,6917.861,95.437,540.894,538.559,0.0
51106.0,STARLINK-3176,PAYLOAD,2024-03-13 21:34:53,15.08839226,0.0001489,53.2196,307.3176,83.6985,276.4177,8.658e-06,-1.5e-06,0.0,0 STARLINK-3176,1 51106U 22005C   24073.89922644 -.00000150  00000-0  86580-5 0  9991,2 51106  53.2196 307.3176 0001489  83.6985 276.4177 15.08839226120415,6917.883,95.438,540.778,538.718,0.0
51106.0,STARLINK-3176,PAYLOAD,2024-03-14 00:45:39,15.08842118,0.0001533,53.218,306.7234,86.9108,273.206,3.3988e-05,2.53e-06,0.0,0 STARLINK-3176,1 51106U 22005C   24074.03170314  .00000253  00000-0  33988-4 0  9993,2 51106  53.2180 306.7234 0001533  86.9108 273.2060 15.08842118119327,6917.874,95.437,540.799,538.678,0.0
51106.0,STARLINK-3176,PAYLOAD,2024-03-14 21:25:42,15.08822694,0.0001556,53.2172,302.8575,91.2602,268.8568,-0.00018077,-3.162e-05,0.0,0 STARLINK-3176,1 51106U 22005C   24074.89284792 -.00003162  00000-0 -18077-3 0  9998,2 51106  53.2172 302.8575 0001556  91.2602 268.8568 15.08822694120564,6917.933,95.439,540.875,538.722,0.0
51106.0,STARLINK-3176,PAYLOAD,2024-03-16 21:07:14,15.08847035,0.0001201,53.2171,293.9353,98.5827,261.5302,0.00014823,2.072e-05,0.0,0 STARLINK-3176,1 51106U 22005C   24076.88002745  .00002072  00000-0  14823-3 0  9997,2 51106  53.2171 293.9353 0001201  98.5827 261.5302 15.08847035120868,6917.859,95.437,540.555,538.893,0.0
51106.0,STARLINK-3176,PAYLOAD,2024-03-17 00:18:00,15.08847439,0.0001224,53.2172,293.3411,99.7541,260.359,0.00014801,2.069e-05,0.0,0 STARLINK-3176,1 51106U 22005C   24077.01250695  .00002069  00000-0  14801-3 0  9994,2 51106  53.2172 293.3411 0001224  99.7541 260.3590 15.08847439119771,6917.858,95.437,540.569,538.876,0.0
51106.0,STARLINK-3176,PAYLOAD,2024-03-17 20:58:01,15.08845538,0.0001286,53.2166,289.4745,101.4014,258.7123,2.8433e-06,-2.43e-06,0.0,0 STARLINK-3176,1 51106U 22005C   24077.87363025 -.00000243  00000-0  28433-5 0  9991,2 51106  53.2166 289.4745 0001286 101.4014 258.7123 15.08845538121015,6917.863,95.437,540.618,538.839,0.0
51106.0,STARLINK-3176,PAYLOAD,2024-03-18 12:51:53,15.08842156,0.0001303,53.2165,286.5012,100.7017,259.4122,-2.1502e-05,-6.3e-06,0.0,0 STARLINK-3176,1 51106U 22005C   24078.53603117 -.00000630  00000-0 -21502-4 0  9994,2 51106  53.2165 286.5012 0001303 100.7017 259.4122 15.08842156120002,6917.874,95.437,540.64,538.837,0.0
51106.0,STARLINK-3176,PAYLOAD,2024-03-18 20:48:48,15.08842615,0.0001285,53.2164,285.0144,98.6056,261.5081,-1.6082e-05,-5.44e-06,0.0,0 STARLINK-3176,1 51106U 22005C   24078.86723004 -.00000544  00000-0 -16082-4 0  9999,2 51106  53.2164 285.0144 0001285  98.6056 261.5081 15.08842615120051,6917.872,95.437,540.626,538.848,0.0
51106.0,STARLINK-3176,PAYLOAD,2024-03-18 23:59:34,15.08842308,0.0001288,53.2164,284.4198,98.9103,261.2035,-1.8247e-05,-5.78e-06,0.0,0 STARLINK-3176,1 51106U 22005C   24078.99970999 -.00000578  00000-0 -18247-4 0  9992,2 51106  53.2164 284.4198 0001288  98.9103 261.2035 15.08842308121182,6917.873,95.437,540.629,538.847,0.0
51106.0,STARLINK-3176,PAYLOAD,2024-03-19 19:04:11,15.08845514,0.000124,53.2164,280.852,98.6872,261.4261,9.5492e-05,1.232e-05,0.0,0 STARLINK-3176,1 51106U 22005C   24079.79458303  .00001232  00000-0  95492-4 0  9994,2 51106  53.2164 280.8520 0001240  98.6872 261.4261 15.08845514121308,6917.864,95.437,540.586,538.871,0.0
51106.0,STARLINK-3176,PAYLOAD,2024-03-20 12:33:27,15.08820442,0.0001285,53.2157,277.5833,83.9954,276.1185,0.00028178,4.197e-05,0.0,0 STARLINK-3176,1 51106U 22005C   24080.52323274  .00004197  00000-0  28178-3 0  9994,2 51106  53.2157 277.5833 0001285  83.9954 276.1185 15.08820442120307,6917.94,95.439,540.694,538.916,0.0
51106.0,STARLINK-3176,PAYLOAD,2024-03-20 20:30:23,15.08831553,0.0001149,53.2163,276.0937,108.1109,252.0009,-2.6213e-05,-7.05e-06,0.0,0 STARLINK-3176,1 51106U 22005C   24080.85443697 -.00000705  00000-0 -26213-4 0  9994,2 51106  53.2163 276.0937 0001149 108.1109 252.0009 15.08831553121465,6917.906,95.438,540.566,538.976,0.0
51106.0,STARLINK-3176,PAYLOAD,2024-03-20 22:05:46,15.08831325,0.0001151,53.2164,275.7964,107.6912,252.4206,-2.8737e-05,-7.45e-06,0.0,0 STARLINK-3176,1 51106U 22005C   24080.92067742 -.00000745  00000-0 -28737-4 0  9992,2 51106  53.2164 275.7964 0001151 107.6912 252.4206 15.08831325120369,6917.907,95.438,540.568,538.976,0.0
51106.0,STARLINK-3176,PAYLOAD,2024-03-21 12:24:14,15.08842662,0.0001266,53.2168,273.1197,100.8044,259.3091,-0.00011579,-2.13e-05,0.0,0 STARLINK-3176,1 51106U 22005C   24081.51683369 -.00002130  00000-0 -11579-3 0  9992,2 51106  53.2168 273.1197 0001266 100.8044 259.3091 15.08842662121568,6917.872,95.437,540.613,538.861,0.0
51106.0,STARLINK-3176,PAYLOAD,2024-03-21 20:21:09,15.08849418,0.0001205,53.2161,271.6368,103.0011,257.1116,5.1964e-05,5.39e-06,0.0,0 STARLINK-3176,1 51106U 22005C   24081.84802517  .00000539  00000-0  51964-4 0  9998,2 51106  53.2161 271.6368 0001205 103.0011 257.1116 15.08849418121612,6917.852,95.437,540.55,538.883,0.0
51106.0,STARLINK-3176,PAYLOAD,2024-03-22 12:15:00,15.08841466,0.0001183,53.2161,268.6624,94.5177,265.5951,0.00022383,3.276e-05,0.0,0 STARLINK-3176,1 51106U 22005C   24082.51042352  .00003276  00000-0  22383-3 0  9999,2 51106  53.2161 268.6624 0001183  94.5177 265.5951 15.08841466120608,6917.876,95.437,540.559,538.923,0.0
51106.0,STARLINK-3176,PAYLOAD,2024-03-22 18:36:33,15.0884183,0.0001198,53.2162,267.4727,95.7212,264.3917,0.00021747,3.175e-05,0.0,0 STARLINK-3176,1 51106U 22005C   24082.77538441  .00003175  00000-0  21747-3 0  9997,2 51106  53.2162 267.4727 0001198  95.7212 264.3917 15.08841830121750,6917.875,95.437,540.569,538.911,0.0
51106.0,STARLINK-3176,PAYLOAD,2024-03-23 18:27:21,15.08838314,0.0001018,53.2161,263.0138,90.7698,269.3411,3.6331e-05,2.9e-06,0.0,0 STARLINK-3176,1 51106U 22005C   24083.76899353  .00000290  00000-0  36331-4 0  9990,2 51106  53.2161 263.0138 0001018  90.7698 269.3411 15.08838314121905,6917.886,95.438,540.455,539.046,0.0
51106.0,STARLINK-3176,PAYLOAD,2024-03-23 21:38:07,15.08842361,0.0001168,53.2164,262.4166,96.8748,263.2377,-2.0166e-05,-6.09e-06,0.0,0 STARLINK-3176,1 51106U 22005C   24083.90147147 -.00000609  00000-0 -20166-4 0  9998,2 51106  53.2164 262.4166 0001168  96.8748 263.2377 15.08842361120811,6917.873,95.437,540.546,538.93,0.0
51106.0,STARLINK-3176,PAYLOAD,2024-03-24 11:56:35,15.08844246,0.0001257,53.217,259.7389,98.7584,261.355,-1.3465e-05,-5.02e-06,0.0,0 STARLINK-3176,1 51106U 22005C   24084.49763144 -.00000502  00000-0 -13465-4 0  9990,2 51106  53.2170 259.7389 0001257  98.7584 261.3550 15.08844246120908,6917.867,95.437,540.602,538.863,0.0
